ONEWEB-0307             
1 49189U 21083D   26063.26308296 -.00000219  00000+0 -63339-3 0  9998
2 49189  87.9030 341.1072 0001761  77.8384 282.2942 13.13469739217151
ONEWEB-0320             
1 49190U 21083E   26063.82445123 -.00000030  00000+0 -10840-3 0  9993
2 49190  87.9241 356.1916 0001858  78.9024 281.2317 13.18131744216229
ONEWEB-0321             
1 49191U 21083F   26063.20200708  .00000145  00000+0  32457-3 0  9997
2 49191  87.9184 295.3966 0001781  93.3372 266.7965 13.20773051222979
ONEWEB-0322             
1 49192U 21083G   26063.25884743 -.00000263  00000+0 -75611-3 0  9992
2 49192  87.9031 341.1128 0001701  94.9147 265.2177 13.13469921217142
ONEWEB-0324             
1 49193U 21083H   26063.35034764  .00000068  00000+0  14039-3 0  9992
2 49193  87.9250 356.2661 0001956  77.4403 282.6948 13.18686220216188
ONEWEB-0325             
1 49194U 21083J   26063.80891104 -.00000008  00000+0 -51863-4 0  9995
2 49194  87.9244 356.1924 0001733  78.2140 281.9187 13.18685509216257
ONEWEB-0326             
1 49195U 21083K   26063.36862532  .00000092  00000+0  20108-3 0  9998
2 49195  87.9251 356.2689 0001632  70.2401 289.8907 13.18687208216182
ONEWEB-0327             
1 49196U 21083L   26063.82359573 -.00000525  00000+0 -13654-2 0  9996
2 49196  87.9240 356.1907 0001741  66.2927 293.8387 13.18688060216265
ONEWEB-0328             
1 49197U 21083M   26063.32487007 -.00000137  00000+0 -40944-3 0  9998
2 49197  87.9049 341.0584 0001875  75.8551 284.2786 13.13469232217131
ONEWEB-0331             
1 49198U 21083N   26063.81715780  .00000027  00000+0  36839-4 0  9990
2 49198  87.9252 356.1733 0001819  68.0745 292.0581 13.18685448216254
ONEWEB-0333             
1 49199U 21083P   26063.77685857 -.00000090  00000+0 -28155-3 0  9990
2 49199  87.9027 341.0089 0001673  78.4124 281.7193 13.13468614217205
ONEWEB-0334             
1 49200U 21083Q   26063.14362245  .00000096  00000+0  20382-3 0  9995
2 49200  87.9172 295.4275 0001816 116.0293 244.1028 13.20771858222923
ONEWEB-0335             
1 49201U 21083R   26063.77177767  .00000059  00000+0  12801-3 0  9994
2 49201  87.9038 341.0028 0001741  71.3201 288.8117 13.13468175217215
ONEWEB-0336             
1 49202U 21083S   26063.28593553  .00000241  00000+0  62611-3 0  9993
2 49202  87.9035 341.0960 0001862  64.6939 295.4383 13.13469490217147
ONEWEB-0337             
1 49203U 21083T   26063.75303170  .00000341  00000+0  90018-3 0  9993
2 49203  87.9030 341.0133 0001896  74.8780 285.2558 13.13469186217209
ONEWEB-0338             
1 49204U 21083U   26063.19411600  .00000062  00000+0  12152-3 0  9993
2 49204  87.9172 295.4217 0001653  96.2858 263.8463 13.20770322222957
ONEWEB-0339             
1 49205U 21083V   26063.30456349  .00000367  00000+0  96961-3 0  9994
2 49205  87.9040 341.0893 0001858  86.7782 273.3559 13.13469136217122
