[{"OBJECT_NAME":"ONEWEB-0307","OBJECT_ID":"2021-083D","EPOCH":"2026-03-04T06:18:50.367744","MEAN_MOTION":13.13469739,"ECCENTRICITY":0.00017615,"INCLINATION":87.903,"RA_OF_ASC_NODE":341.1072,"ARG_OF_PERICENTER":77.8384,"MEAN_ANOMALY":282.2942,"EPHEMERIS_TYPE":0,"CLASSIFICATION_TYPE":"U","NORAD_CAT_ID":49189,"ELEMENT_SET_NO":999,"REV_AT_EPOCH":21715,"BSTAR":-0.00063338772,"MEAN_MOTION_DOT":-2.19e-6,"MEAN_MOTION_DDOT":0},{"OBJECT_NAME":"ONEWEB-0320","OBJECT_ID":"2021-083E","EPOCH":"2026-03-04T19:47:12.586272","MEAN_MOTION":13.18131744,"ECCENTRICITY":0.0001858,"INCLINATION":87.9241,"RA_OF_ASC_NODE":356.1916,"ARG_OF_PERICENTER":78.9024,"MEAN_ANOMALY":281.2317,"EPHEMERIS_TYPE":0,"CLASSIFICATION_TYPE":"U","NORAD_CAT_ID":49190,"ELEMENT_SET_NO":999,"REV_AT_EPOCH":21622,"BSTAR":-0.0001084,"MEAN_MOTION_DOT":-3.0e-7,"MEAN_MOTION_DDOT":0},{"OBJECT_NAME":"ONEWEB-0321","OBJECT_ID":"2021-083F","EPOCH":"2026-03-04T04:50:53.411712","MEAN_MOTION":13.20773051,"ECCENTRICITY":0.00017815,"INCLINATION":87.9184,"RA_OF_ASC_NODE":295.3966,"ARG_OF_PERICENTER":93.3372,"MEAN_ANOMALY":266.7965,"EPHEMERIS_TYPE":0,"CLASSIFICATION_TYPE":"U","NORAD_CAT_ID":49191,"ELEMENT_SET_NO":999,"REV_AT_EPOCH":22297,"BSTAR":0.00032456874,"MEAN_MOTION_DOT":1.45e-6,"MEAN_MOTION_DDOT":0},{"OBJECT_NAME":"ONEWEB-0322","OBJECT_ID":"2021-083G","EPOCH":"2026-03-04T06:12:44.417952","MEAN_MOTION":13.13469921,"ECCENTRICITY":0.00017016,"INCLINATION":87.9031,"RA_OF_ASC_NODE":341.1128,"ARG_OF_PERICENTER":94.9147,"MEAN_ANOMALY":265.2177,"EPHEMERIS_TYPE":0,"CLASSIFICATION_TYPE":"U","NORAD_CAT_ID":49192,"ELEMENT_SET_NO":999,"REV_AT_EPOCH":21714,"BSTAR":-0.00075610529,"MEAN_MOTION_DOT":-2.63e-6,"MEAN_MOTION_DDOT":0},{"OBJECT_NAME":"ONEWEB-0324","OBJECT_ID":"2021-083H","EPOCH":"2026-03-04T08:24:30.036096","MEAN_MOTION":13.1868622,"ECCENTRICITY":0.00019565,"INCLINATION":87.925,"RA_OF_ASC_NODE":356.2661,"ARG_OF_PERICENTER":77.4403,"MEAN_ANOMALY":282.6948,"EPHEMERIS_TYPE":0,"CLASSIFICATION_TYPE":"U","NORAD_CAT_ID":49193,"ELEMENT_SET_NO":999,"REV_AT_EPOCH":21618,"BSTAR":0.00014038635,"MEAN_MOTION_DOT":6.8e-7,"MEAN_MOTION_DDOT":0},{"OBJECT_NAME":"ONEWEB-0325","OBJECT_ID":"2021-083J","EPOCH":"2026-03-04T19:24:49.913856","MEAN_MOTION":13.18685509,"ECCENTRICITY":0.0001733,"INCLINATION":87.9244,"RA_OF_ASC_NODE":356.1924,"ARG_OF_PERICENTER":78.214,"MEAN_ANOMALY":281.9187,"EPHEMERIS_TYPE":0,"CLASSIFICATION_TYPE":"U","NORAD_CAT_ID":49194,"ELEMENT_SET_NO":999,"REV_AT_EPOCH":21625,"BSTAR":-5.1863e-5,"MEAN_MOTION_DOT":-8.0e-8,"MEAN_MOTION_DDOT":0},{"OBJECT_NAME":"ONEWEB-0326","OBJECT_ID":"2021-083K","EPOCH":"2026-03-04T08:50:49.227648","MEAN_MOTION":13.18687208,"ECCENTRICITY":0.00016328,"INCLINATION":87.9251,"RA_OF_ASC_NODE":356.2689,"ARG_OF_PERICENTER":70.2401,"MEAN_ANOMALY":289.8907,"EPHEMERIS_TYPE":0,"CLASSIFICATION_TYPE":"U","NORAD_CAT_ID":49195,"ELEMENT_SET_NO":999,"REV_AT_EPOCH":21618,"BSTAR":0.00020107919,"MEAN_MOTION_DOT":9.2e-7,"MEAN_MOTION_DDOT":0},{"OBJECT_NAME":"ONEWEB-0327","OBJECT_ID":"2021-083L","EPOCH":"2026-03-04T19:45:58.671072","MEAN_MOTION":13.1868806,"ECCENTRICITY":0.0001741,"INCLINATION":87.924,"RA_OF_ASC_NODE":356.1907,"ARG_OF_PERICENTER":66.2927,"MEAN_ANOMALY":293.8387,"EPHEMERIS_TYPE":0,"CLASSIFICATION_TYPE":"U","NORAD_CAT_ID":49196,"ELEMENT_SET_NO":999,"REV_AT_EPOCH":21626,"BSTAR":-0.0013654,"MEAN_MOTION_DOT":-5.25e-6,"MEAN_MOTION_DDOT":0},{"OBJECT_NAME":"ONEWEB-0328","OBJECT_ID":"2021-083M","EPOCH":"2026-03-04T07:47:48.774048","MEAN_MOTION":13.13469232,"ECCENTRICITY":0.0001875,"INCLINATION":87.9049,"RA_OF_ASC_NODE":341.0584,"ARG_OF_PERICENTER":75.8551,"MEAN_ANOMALY":284.2786,"EPHEMERIS_TYPE":0,"CLASSIFICATION_TYPE":"U","NORAD_CAT_ID":49197,"ELEMENT_SET_NO":999,"REV_AT_EPOCH":21713,"BSTAR":-0.0004094375,"MEAN_MOTION_DOT":-1.37e-6,"MEAN_MOTION_DDOT":0},{"OBJECT_NAME":"ONEWEB-0331","OBJECT_ID":"2021-083N","EPOCH":"2026-03-04T19:36:42.433920","MEAN_MOTION":13.18685448,"ECCENTRICITY":0.0001819,"INCLINATION":87.9252,"RA_OF_ASC_NODE":356.1733,"ARG_OF_PERICENTER":68.0745,"MEAN_ANOMALY":292.0581,"EPHEMERIS_TYPE":0,"CLASSIFICATION_TYPE":"U","NORAD_CAT_ID":49198,"ELEMENT_SET_NO":999,"REV_AT_EPOCH":21625,"BSTAR":3.6839e-5,"MEAN_MOTION_DOT":2.7e-7,"MEAN_MOTION_DDOT":0},{"OBJECT_NAME":"ONEWEB-0333","OBJECT_ID":"2021-083P","EPOCH":"2026-03-04T18:38:40.580448","MEAN_MOTION":13.13468614,"ECCENTRICITY":0.0001673,"INCLINATION":87.9027,"RA_OF_ASC_NODE":341.0089,"ARG_OF_PERICENTER":78.4124,"MEAN_ANOMALY":281.7193,"EPHEMERIS_TYPE":0,"CLASSIFICATION_TYPE":"U","NORAD_CAT_ID":49199,"ELEMENT_SET_NO":999,"REV_AT_EPOCH":21720,"BSTAR":-0.00028155,"MEAN_MOTION_DOT":-9.0e-7,"MEAN_MOTION_DDOT":0},{"OBJECT_NAME":"ONEWEB-0334","OBJECT_ID":"2021-083Q","EPOCH":"2026-03-04T03:26:48.979680","MEAN_MOTION":13.20771858,"ECCENTRICITY":0.00018168,"INCLINATION":87.9172,"RA_OF_ASC_NODE":295.4275,"ARG_OF_PERICENTER":116.0293,"MEAN_ANOMALY":244.1028,"EPHEMERIS_TYPE":0,"CLASSIFICATION_TYPE":"U","NORAD_CAT_ID":49200,"ELEMENT_SET_NO":999,"REV_AT_EPOCH":22292,"BSTAR":0.000203822,"MEAN_MOTION_DOT":9.6e-7,"MEAN_MOTION_DDOT":0},{"OBJECT_NAME":"ONEWEB-0335","OBJECT_ID":"2021-083R","EPOCH":"2026-03-04T18:31:21.590688","MEAN_MOTION":13.13468175,"ECCENTRICITY":0.0001741,"INCLINATION":87.9038,"RA_OF_ASC_NODE":341.0028,"ARG_OF_PERICENTER":71.3201,"MEAN_ANOMALY":288.8117,"EPHEMERIS_TYPE":0,"CLASSIFICATION_TYPE":"U","NORAD_CAT_ID":49201,"ELEMENT_SET_NO":999,"REV_AT_EPOCH":21721,"BSTAR":0.00012801,"MEAN_MOTION_DOT":5.9e-7,"MEAN_MOTION_DDOT":0},{"OBJECT_NAME":"ONEWEB-0336","OBJECT_ID":"2021-083S","EPOCH":"2026-03-04T06:51:44.829792","MEAN_MOTION":13.1346949,"ECCENTRICITY":0.00018624,"INCLINATION":87.9035,"RA_OF_ASC_NODE":341.096,"ARG_OF_PERICENTER":64.6939,"MEAN_ANOMALY":295.4383,"EPHEMERIS_TYPE":0,"CLASSIFICATION_TYPE":"U","NORAD_CAT_ID":49202,"ELEMENT_SET_NO":999,"REV_AT_EPOCH":21714,"BSTAR":0.00062610761,"MEAN_MOTION_DOT":2.41e-6,"MEAN_MOTION_DDOT":0},{"OBJECT_NAME":"ONEWEB-0337","OBJECT_ID":"2021-083T","EPOCH":"2026-03-04T18:04:21.938880","MEAN_MOTION":13.13469186,"ECCENTRICITY":0.0001896,"INCLINATION":87.903,"RA_OF_ASC_NODE":341.0133,"ARG_OF_PERICENTER":74.878,"MEAN_ANOMALY":285.2558,"EPHEMERIS_TYPE":0,"CLASSIFICATION_TYPE":"U","NORAD_CAT_ID":49203,"ELEMENT_SET_NO":999,"REV_AT_EPOCH":21720,"BSTAR":0.00090018,"MEAN_MOTION_DOT":3.41e-6,"MEAN_MOTION_DDOT":0},{"OBJECT_NAME":"ONEWEB-0338","OBJECT_ID":"2021-083U","EPOCH":"2026-03-04T04:39:31.622400","MEAN_MOTION":13.20770322,"ECCENTRICITY":0.00016533,"INCLINATION":87.9172,"RA_OF_ASC_NODE":295.4217,"ARG_OF_PERICENTER":96.2858,"MEAN_ANOMALY":263.8463,"EPHEMERIS_TYPE":0,"CLASSIFICATION_TYPE":"U","NORAD_CAT_ID":49204,"ELEMENT_SET_NO":999,"REV_AT_EPOCH":22295,"BSTAR":0.00012152325,"MEAN_MOTION_DOT":6.2e-7,"MEAN_MOTION_DDOT":0},{"OBJECT_NAME":"ONEWEB-0339","OBJECT_ID":"2021-083V","EPOCH":"2026-03-04T07:18:34.285536","MEAN_MOTION":13.13469136,"ECCENTRICITY":0.00018589,"INCLINATION":87.904,"RA_OF_ASC_NODE":341.0893,"ARG_OF_PERICENTER":86.7782,"MEAN_ANOMALY":273.3559,"EPHEMERIS_TYPE":0,"CLASSIFICATION_TYPE":"U","NORAD_CAT_ID":49205,"ELEMENT_SET_NO":999,"REV_AT_EPOCH":21712,"BSTAR":0.0009696144,"MEAN_MOTION_DOT":3.67e-6,"MEAN_MOTION_DDOT":0}]
